NOAA 1 [-]              
1 04793U 70106A   22297.90864885 -.00000023  00000+0  12967-3 0  9990
2 04793 101.5420 358.3853 0031844  70.8383 102.3624 12.54008308373813
NOAA 2 (ITOS-D) [-]     
1 06235U 72082A   22298.17921175 -.00000031  00000+0  98345-4 0  9998
2 06235 101.9690 281.2862 0003843 183.3137 186.5906 12.53153008288446
NOAA 3 [-]              
1 06920U 73086A   22297.90848137 -.00000032  00000+0  10472-3 0  9995
2 06920 102.2233 279.8924 0006789  51.6810 323.2083 12.40349623216840
NOAA 4 [-]              
1 07529U 74089A   22297.92226375 -.00000032  00000+0  85652-4 0  9994
2 07529 101.9302 278.0072 0008658 215.7118 172.4127 12.53161657193003
NOAA 5 [-]              
1 09057U 76077A   22297.86876431 -.00000032  00000+0  97860-4 0  9992
2 09057 102.1172 264.5514 0009513 262.2652 124.9286 12.37775587 89974
TIROS N [-]             
1 11060U 78096A   22297.86099197  .00000121  00000+0  79080-4 0  9990
2 11060  98.6204 348.0807 0011533 127.9978 232.2241 14.18428033489950
NOAA 6 [-]              
1 11416U 79057A   22298.06364947  .00000244  00000+0  10371-3 0  9997
2 11416  98.6634 309.1234 0009418 232.6586 127.3741 14.33821605260306
NOAA 7 [-]              
1 12553U 81059A   22298.40596624  .00000031  00000+0  37698-4 0  9998
2 12553  98.9841 344.3430 0012493 105.4319 254.8236 14.17350215136425
NOAA 8 [-]              
1 13923U 83022A   22298.25722849  .00000099  00000+0  56831-4 0  9999
2 13923  98.6983 288.3644 0014852 185.8746 174.2264 14.28846245 61206
NOAA 9 [-]              
1 15427U 84123A   22298.22537088  .00000076  00000+0  61450-4 0  9997
2 15427  99.0627 272.7451 0015167 154.2415 217.1113 14.16236455955219
NOAA 10 [-]             
1 16969U 86073A   22297.77728729  .00000108  00000+0  60879-4 0  9998
2 16969  98.5818 281.6303 0011216 296.6821 120.9656 14.28235428879293
NOAA 11 [-]             
1 19531U 88089A   22297.64446593  .00000044  00000+0  43552-4 0  9995
2 19531  98.4384 279.7070 0011428 160.7757 199.3851 14.15329430759096
NOAA 12 [-]             
1 21263U 91032A   22297.87823859  .00000077  00000+0  50295-4 0  9999
2 21263  98.5216 294.1153 0012956 324.8516  35.1809 14.26021378635176
NOAA 13 [-]             
1 22739U 93050A   22298.18584074  .00000061  00000+0  55175-4 0  9993
2 22739  98.5214 271.6104 0009139 338.9922  21.0874 14.12873568505617
NOAA 14 [-]             
1 23455U 94089A   22297.81693496  .00000044  00000+0  44678-4 0  9997
2 23455  98.4408 317.4850 0008667 317.9168  42.1340 14.14215223434992
NOAA 15 [B]             
1 25338U 98030A   22298.42276830  .00000126  00000+0  70807-4 0  9990
2 25338  98.6339 326.1989 0009283 279.4886  80.5244 14.26186660271794
NOAA 16 [-]             
1 26536U 00055A   22297.87970784  .00000076  00000+0  62757-4 0  9997
2 26536  98.6212 352.2223 0011087 151.2701 208.9085 14.13352622435637
NOAA 17 [-]             
1 27453U 02032A   22298.17801392  .00000095  00000+0  59276-4 0  9998
2 27453  98.6847 241.9917 0010711 253.8127 106.1874 14.25156582 57341
NOAA 18 [B]             
1 28654U 05018A   22298.44864802  .00000161  00000+0  11066-3 0  9992
2 28654  98.9374   8.7080 0013579 327.2422  32.7906 14.12795389898424
NOAA 19 [+]             
1 33591U 09005A   22298.39393918  .00000173  00000+0  11835-3 0  9994
2 33591  99.1352 335.1864 0013964 179.3680 180.7511 14.12627156706796
SUOMI NPP [+]           
1 37849U 11061A   22298.45711500  .00000070  00000+0  54175-4 0  9998
2 37849  98.7423 235.2505 0000988  83.5417 342.6752 14.19554309569630
NOAA 20 [+]             
1 43013U 17073A   22298.40820680  .00000048  00000+0  43556-4 0  9998
2 43013  98.7262 234.9726 0001556  71.9297 288.2049 14.19553140255662
